$$SOE
2460154.500000000, A.D. 2023-Jul-29 00:00:00.0000, 8.761009708872209E+07, 2.531572975724508E+08, -1.414785281257295E+08,
2460161.500000000, A.D. 2023-Aug-05 00:00:00.0000, 7.749000875250863E+07, 2.567783959165245E+08, -1.465106173234232E+08,
2460168.500000000, A.D. 2023-Aug-12 00:00:00.0000, 6.723812044105873E+07, 2.599628636406747E+08, -1.512935652905048E+08,
2460175.500000000, A.D. 2023-Aug-19 00:00:00.0000, 5.687471619744981E+07, 2.627163050584301E+08, -1.558256518564094E+08,
2460182.500000000, A.D. 2023-Aug-26 00:00:00.0000, 4.641923312285233E+07, 2.650445624496620E+08, -1.601055361187932E+08,
2460189.500000000, A.D. 2023-Sep-02 00:00:00.0000, 3.589031089502043E+07, 2.669536743828212E+08, -1.641322162062969E+08,
2460196.500000000, A.D. 2023-Sep-09 00:00:00.0000, 2.530584000927891E+07, 2.684498398516703E+08, -1.679049932484546E+08,
2460203.500000000, A.D. 2023-Sep-16 00:00:00.0000, 1.468300868122136E+07, 2.695393874887155E+08, -1.714234391912797E+08,
2460210.500000000, A.D. 2023-Sep-23 00:00:00.0000, 4.038348671346990E+06, 2.702287495379552E+08, -1.746873681220318E+08,
2460217.500000000, A.D. 2023-Sep-30 00:00:00.0000, -6.612220404032999E+06, 2.705244412428614E+08, -1.776968106551663E+08,
2460224.500000000, A.D. 2023-Oct-07 00:00:00.0000, -1.725335067482760E+07, 2.704330446317288E+08, -1.804519909133325E+08,
2460231.500000000, A.D. 2023-Oct-14 00:00:00.0000, -2.787022850731178E+07, 2.699611929666601E+08, -1.829533061947792E+08,
2460238.500000000, A.D. 2023-Oct-21 00:00:00.0000, -3.844853664616479E+07, 2.691155570951201E+08, -1.852013092538407E+08,
2460245.500000000, A.D. 2023-Oct-28 00:00:00.0000, -4.897441739418712E+07, 2.679028356460061E+08, -1.871966926677567E+08,
2460252.500000000, A.D. 2023-Nov-04 00:00:00.0000, -5.943443802453371E+07, 2.663297480190104E+08, -1.889402750400810E+08,
2460259.500000000, A.D. 2023-Nov-11 00:00:00.0000, -6.981555818545930E+07, 2.644030293232573E+08, -1.904329889265632E+08,
2460266.500000000, A.D. 2023-Nov-18 00:00:00.0000, -8.010509901022246E+07, 2.621294269898660E+08, -1.916758703492058E+08,
2460273.500000000, A.D. 2023-Nov-25 00:00:00.0000, -9.029071378864446E+07, 2.595156988988214E+08, -1.926700497625412E+08,
2460280.500000000, A.D. 2023-Dec-02 00:00:00.0000, -1.003603601000501E+08, 2.565686128523789E+08, -1.934167443535866E+08,
2460287.500000000, A.D. 2023-Dec-09 00:00:00.0000, -1.103022732562543E+08, 2.532949472025145E+08, -1.939172515828927E+08,
2460294.500000000, A.D. 2023-Dec-16 00:00:00.0000, -1.201049406923976E+08, 2.497014925321379E+08, -1.941729439022914E+08,
2460301.500000000, A.D. 2023-Dec-23 00:00:00.0000, -1.297570768830870E+08, 2.457950549833531E+08, -1.941852645478091E+08,
2460308.500000000, A.D. 2023-Dec-30 00:00:00.0000, -1.392476000517605E+08, 2.415824622054438E+08, -1.939557241339439E+08,
2460315.500000000, A.D. 2024-Jan-06 00:00:00.0000, -1.485656123732522E+08, 2.370705695014072E+08, -1.934858980227517E+08,
2460322.500000000, A.D. 2024-Jan-13 00:00:00.0000, -1.577003804293294E+08, 2.322662643164656E+08, -1.927774248513005E+08,
2460329.500000000, A.D. 2024-Jan-20 00:00:00.0000, -1.666413146379586E+08, 2.271764721142500E+08, -1.918320060352443E+08,
2460336.500000000, A.D. 2024-Jan-27 00:00:00.0000, -1.753779496320998E+08, 2.218081642684541E+08, -1.906514059813444E+08,
2460343.500000000, A.D. 2024-Feb-03 00:00:00.0000, -1.838999259657610E+08, 2.161683670073636E+08, -1.892374530238021E+08,
2460350.500000000, A.D. 2024-Feb-10 00:00:00.0000, -1.921969728264077E+08, 2.102641711141450E+08, -1.875920411160731E+08,
2460357.500000000, A.D. 2024-Feb-17 00:00:00.0000, -2.002588915786207E+08, 2.041027423932119E+08, -1.857171322810245E+08,
2460364.500000000, A.D. 2024-Feb-24 00:00:00.0000, -2.080755400732065E+08, 1.976913329282448E+08, -1.836147598205894E+08,
2460371.500000000, A.D. 2024-Mar-02 00:00:00.0000, -2.156368176691426E+08, 1.910372931183016E+08, -1.812870322971377E+08,
2460378.500000000, A.D. 2024-Mar-09 00:00:00.0000, -2.229326508132060E+08, 1.841480844561015E+08, -1.787361383186918E+08,
2460385.500000000, A.D. 2024-Mar-16 00:00:00.0000, -2.299529787731501E+08, 1.770312932803256E+08, -1.759643521693042E+08,
2460392.500000000, A.D. 2024-Mar-23 00:00:00.0000, -2.366877396280174E+08, 1.696946466526538E+08, -1.729740402128045E+08,
2460399.500000000, A.D. 2024-Mar-30 00:00:00.0000, -2.431268587671817E+08, 1.621460303823283E+08, -1.697676679042253E+08,
2460406.500000000, A.D. 2024-Apr-06 00:00:00.0000, -2.492602396610856E+08, 1.543935058908095E+08, -1.663478077532028E+08,
2460413.500000000, A.D. 2024-Apr-13 00:00:00.0000, -2.550777533797591E+08, 1.464453268190008E+08, -1.627171485426350E+08,
2460420.500000000, A.D. 2024-Apr-20 00:00:00.0000, -2.605692278550878E+08, 1.383099581208287E+08, -1.588785055498659E+08,
2460427.500000000, A.D. 2024-Apr-27 00:00:00.0000, -2.657244384646300E+08, 1.299960971577891E+08, -1.548348317455760E+08,
2460434.500000000, A.D. 2024-May-04 00:00:00.0000, -2.705330999236076E+08, 1.215126961771019E+08, -1.505892301123255E+08,
2460441.500000000, A.D. 2024-May-11 00:00:00.0000, -2.749848593384186E+08, 1.128689861632908E+08, -1.461449671954050E+08,
2460448.500000000, A.D. 2024-May-18 00:00:00.0000, -2.790692904523474E+08, 1.040745021812618E+08, -1.415054879830735E+08,
2460455.500000000, A.D. 2024-May-25 00:00:00.0000, -2.827758891950822E+08, 9.513911030539185E+07, -1.366744322204488E+08,
2460462.500000000, A.D. 2024-Jun-01 00:00:00.0000, -2.860940706390948E+08, 8.607303618358839E+07, -1.316556522789234E+08,
2460469.500000000, A.D. 2024-Jun-08 00:00:00.0000, -2.890131673094220E+08, 7.688689532347630E+07, -1.264532327275511E+08,
2460476.500000000, A.D. 2024-Jun-15 00:00:00.0000, -2.915224286740845E+08, 6.759172575786726E+07, -1.210715117306209E+08,
2460483.500000000, A.D. 2024-Jun-22 00:00:00.0000, -2.936110230861977E+08, 5.819902437580939E+07, -1.155151042259614E+08,
2460490.500000000, A.D. 2024-Jun-29 00:00:00.0000, -2.952680446126853E+08, 4.872078520674603E+07, -1.097889269944108E+08,
2460497.500000000, A.D. 2024-Jul-06 00:00:00.0000, -2.964825224710278E+08, 3.916953729414774E+07, -1.038982262338173E+08,
2460504.500000000, A.D. 2024-Jul-13 00:00:00.0000, -2.972434315432351E+08, 2.955838508338799E+07, -9.784860775791092E+07,
2460511.500000000, A.D. 2024-Jul-20 00:00:00.0000, -2.975397064342093E+08, 1.990105255153285E+07, -9.164606972187713E+07,
2460518.500000000, A.D. 2024-Jul-27 00:00:00.0000, -2.973602602938085E+08, 1.021193017582430E+07, -8.529703808432472E+07,
2460525.500000000, A.D. 2024-Aug-03 00:00:00.0000, -2.966940087806373E+08, 5.061244012744986E+05, -7.880840505850932E+07,
2460532.500000000, A.D. 2024-Aug-10 00:00:00.0000, -2.955298997425707E+08, -9.200490394396167E+06, -7.218757075879139E+07,
2460539.500000000, A.D. 2024-Aug-17 00:00:00.0000, -2.938569494033480E+08, -1.889121746495842E+07, -6.544248822087489E+07,
2460546.500000000, A.D. 2024-Aug-24 00:00:00.0000, -2.916642859690387E+08, -2.854848093359633E+07, -5.858171195728028E+07,
2460553.500000000, A.D. 2024-Aug-31 00:00:00.0000, -2.889412016031098E+08, -3.815376698880094E+07, -5.161445020164449E+07,
2460560.500000000, A.D. 2024-Sep-07 00:00:00.0000, -2.856772136168491E+08, -4.768756325403088E+07, -4.455062098068663E+07,
2460567.500000000, A.D. 2024-Sep-14 00:00:00.0000, -2.818621361655639E+08, -5.712929581049564E+07, -3.740091201437414E+07,
2460574.500000000, A.D. 2024-Sep-21 00:00:00.0000, -2.774861660164758E+08, -6.645726409673597E+07, -3.017684422494168E+07,
2460581.500000000, A.D. 2024-Sep-28 00:00:00.0000, -2.725399845716181E+08, -7.564857775863853E+07, -2.289083897020942E+07,
2460588.500000000, A.D. 2024-Oct-05 00:00:00.0000, -2.670148743291287E+08, -8.467909655566664E+07, -1.555628909956220E+07,
2460595.500000000, A.D. 2024-Oct-12 00:00:00.0000, -2.609028521351995E+08, -9.352337176466089E+07, -8.187633144798670E+06,
2460602.500000000, A.D. 2024-Oct-19 00:00:00.0000, -2.541968230815242E+08, -1.021545911573226E+08, -8.004318808565512E+05,
2460609.500000000, A.D. 2024-Oct-26 00:00:00.0000, -2.468907572755617E+08, -1.105445306228271E+08, 6.588553571544044E+06,
2460616.500000000, A.D. 2024-Nov-02 00:00:00.0000, -2.389798914697836E+08, -1.186635153883438E+08, 1.396128328794640E+07,
2460623.500000000, A.D. 2024-Nov-09 00:00:00.0000, -2.304609576497688E+08, -1.264803942265210E+08, 2.129836135681688E+07,
2460630.500000000, A.D. 2024-Nov-16 00:00:00.0000, -2.213324405732542E+08, -1.339625307515385E+08, 2.857896210582021E+07,
2460637.500000000, A.D. 2024-Nov-23 00:00:00.0000, -2.115948658910242E+08, -1.410758167295124E+08, 3.578076245806718E+07,
2460644.500000000, A.D. 2024-Nov-30 00:00:00.0000, -2.012511197652922E+08, -1.477847131573124E+08, 4.287988381330222E+07,
2460651.500000000, A.D. 2024-Dec-07 00:00:00.0000, -1.903067998571534E+08, -1.540523252676078E+08, 4.985084765210824E+07,
2460658.500000000, A.D. 2024-Dec-14 00:00:00.0000, -1.787705974789431E+08, -1.598405176666740E+08, 5.666655009574939E+07,
2460665.500000000, A.D. 2024-Dec-21 00:00:00.0000, -1.666547107304588E+08, -1.651100790479032E+08, 6.329826152560782E+07,
2460672.500000000, A.D. 2024-Dec-28 00:00:00.0000, -1.539752820552942E+08, -1.698209482482947E+08, 6.971565777009140E+07,
2460679.500000000, A.D. 2025-Jan-04 00:00:00.0000, -1.407528503924915E+08, -1.739325083521061E+08, 7.588689063132960E+07,
2460686.500000000, A.D. 2025-Jan-11 00:00:00.0000, -1.270128092976282E+08, -1.774039560502670E+08, 8.177870659304251E+07,
2460693.500000000, A.D. 2025-Jan-18 00:00:00.0000, -1.127858577280803E+08, -1.801947551456021E+08, 8.735662267471021E+07,
2460700.500000000, A.D. 2025-Jan-25 00:00:00.0000, -9.810842479710825E+07, -1.822651808547611E+08, 9.258516826587662E+07,
2460707.500000000, A.D. 2025-Feb-01 00:00:00.0000, -8.302304538278241E+07, -1.835769582028316E+08, 9.742820109118390E+07,
2460714.500000000, A.D. 2025-Feb-08 00:00:00.0000, -6.757865924125150E+07, -1.840939935061245E+08, 1.018493038731819E+08,
$$EOE